STARLINK-36328          
1 68096U 26042AD  26073.50002315 -.01707603  80227-3 -53751-2 0  9998
2 68096  53.1591 170.5312 0001045  57.8873   4.8516 15.90797963  2813
STARLINK-36853          
1 68097U 26042AE  26073.50002315 -.01487927  00000+0 -54143-2 0  9996
2 68097  53.1590 170.5461 0000891  77.3758 338.2916 15.90612272  2823
GLOBAL-34               
1 68098U 26043A   26071.99616608  .00008884  00000+0  29276-3 0  9993
2 68098  42.0214  56.4132 0006382 310.0598  49.9679 15.31580793  1076
STARLINK-37022          
1 68101U 26044A   26073.50002315 -.01813196  10049-2 -33488-2 0  9991
2 68101  97.2825  33.7282 0001525  96.5155  45.1613 16.01328308  2172
STARLINK-37046          
1 68102U 26044B   26073.50002315 -.01791886  98383-3 -32911-2 0  9991
2 68102  97.2826  33.7290 0001516  96.2659  46.7413 16.01422835  2174
STARLINK-37018          
1 68103U 26044C   26073.50002315 -.01809150  10036-2 -32937-2 0  9992
2 68103  97.2824  33.7298 0001587  96.0912  48.9427 16.01577089  2125
STARLINK-37041          
1 68104U 26044D   26073.50002315 -.01816804  10150-2 -32559-2 0  9994
2 68104  97.2825  33.7315 0001517  96.9115  51.7066 16.01851213  2129
STARLINK-37021          
1 68105U 26044E   26073.50002315 -.01800413  99906-3 -32056-2 0  9993
2 68105  97.2822  33.7318 0001465  93.9169  56.2079 16.01961889  2123
STARLINK-37024          
1 68106U 26044F   26073.50002315 -.01808781  10095-2 -31957-2 0  9990
2 68106  97.2822  33.7326 0001521  94.9682  56.8669 16.02095987  2126
STARLINK-37005          
1 68107U 26044G   26073.50002315 -.01817820  10144-2 -32834-2 0  9995
2 68107  97.2824  33.7302 0001575  95.8035  51.0056 16.01715314  2123
STARLINK-37017          
1 68108U 26044H   26073.50002315 -.01826153  10297-2 -31991-2 0  9997
2 68108  97.2822  33.7336 0001446  93.4978  60.2992 16.02244633  2129
STARLINK-36833          
1 68109U 26044J   26073.50002315 -.01823064  10297-2 -31451-2 0  9997
2 68109  97.2816  33.7349 0001512  95.4333  61.9247 16.02507441  2173
