CCSDS_OMM_VERS = 2.0
CREATION_DATE  = 
ORIGINATOR     = 

OBJECT_NAME    = STARLINK-36328
OBJECT_ID      = 2026-042AD
CENTER_NAME    = EARTH
REF_FRAME      = TEME
TIME_SYSTEM    = UTC
MEAN_ELEMENT_THEORY = SGP/SGP4

EPOCH          = 2026-03-14T12:00:02.000160
MEAN_MOTION    = 15.90797963
ECCENTRICITY   = .00010451
INCLINATION    = 53.1591
RA_OF_ASC_NODE = 170.5312
ARG_OF_PERICENTER = 57.8873
MEAN_ANOMALY   = 4.8516

EPHEMERIS_TYPE = 0
CLASSIFICATION_TYPE = U
NORAD_CAT_ID   = 68096
ELEMENT_SET_NO = 999
REV_AT_EPOCH   = 281
BSTAR          = -.53750833E-2
MEAN_MOTION_DOT = -.1707603E-1
MEAN_MOTION_DDOT = .80226985E-3

CCSDS_OMM_VERS = 2.0
CREATION_DATE  = 
ORIGINATOR     = 

OBJECT_NAME    = STARLINK-36853
OBJECT_ID      = 2026-042AE
CENTER_NAME    = EARTH
REF_FRAME      = TEME
TIME_SYSTEM    = UTC
MEAN_ELEMENT_THEORY = SGP/SGP4

EPOCH          = 2026-03-14T12:00:02.000160
MEAN_MOTION    = 15.90612272
ECCENTRICITY   = .00008912
INCLINATION    = 53.1590
RA_OF_ASC_NODE = 170.5461
ARG_OF_PERICENTER = 77.3758
MEAN_ANOMALY   = 338.2916

EPHEMERIS_TYPE = 0
CLASSIFICATION_TYPE = U
NORAD_CAT_ID   = 68097
ELEMENT_SET_NO = 999
REV_AT_EPOCH   = 282
BSTAR          = -.54142518E-2
MEAN_MOTION_DOT = -.1487927E-1
MEAN_MOTION_DDOT = 0

CCSDS_OMM_VERS = 2.0
CREATION_DATE  = 
ORIGINATOR     = 

OBJECT_NAME    = GLOBAL-34
OBJECT_ID      = 2026-043A
CENTER_NAME    = EARTH
REF_FRAME      = TEME
TIME_SYSTEM    = UTC
MEAN_ELEMENT_THEORY = SGP/SGP4

EPOCH          = 2026-03-12T23:54:28.749312
MEAN_MOTION    = 15.31580793
ECCENTRICITY   = .00063821
INCLINATION    = 42.0214
RA_OF_ASC_NODE = 56.4132
ARG_OF_PERICENTER = 310.0598
MEAN_ANOMALY   = 49.9679

EPHEMERIS_TYPE = 0
CLASSIFICATION_TYPE = U
NORAD_CAT_ID   = 68098
ELEMENT_SET_NO = 999
REV_AT_EPOCH   = 107
BSTAR          = .29276458E-3
MEAN_MOTION_DOT = .8884E-4
MEAN_MOTION_DDOT = 0

CCSDS_OMM_VERS = 2.0
CREATION_DATE  = 
ORIGINATOR     = 

OBJECT_NAME    = STARLINK-37022
OBJECT_ID      = 2026-044A
CENTER_NAME    = EARTH
REF_FRAME      = TEME
TIME_SYSTEM    = UTC
MEAN_ELEMENT_THEORY = SGP/SGP4

EPOCH          = 2026-03-14T12:00:02.000160
MEAN_MOTION    = 16.01328308
ECCENTRICITY   = .00015258
INCLINATION    = 97.2825
RA_OF_ASC_NODE = 33.7282
ARG_OF_PERICENTER = 96.5155
MEAN_ANOMALY   = 45.1613

EPHEMERIS_TYPE = 0
CLASSIFICATION_TYPE = U
NORAD_CAT_ID   = 68101
ELEMENT_SET_NO = 999
REV_AT_EPOCH   = 217
BSTAR          = -.33488231E-2
MEAN_MOTION_DOT = -.1813196E-1
MEAN_MOTION_DDOT = .10048711E-2

CCSDS_OMM_VERS = 2.0
CREATION_DATE  = 
ORIGINATOR     = 

OBJECT_NAME    = STARLINK-37046
OBJECT_ID      = 2026-044B
CENTER_NAME    = EARTH
REF_FRAME      = TEME
TIME_SYSTEM    = UTC
MEAN_ELEMENT_THEORY = SGP/SGP4

EPOCH          = 2026-03-14T12:00:02.000160
MEAN_MOTION    = 16.01422835
ECCENTRICITY   = .00015167
INCLINATION    = 97.2826
RA_OF_ASC_NODE = 33.7290
ARG_OF_PERICENTER = 96.2659
MEAN_ANOMALY   = 46.7413

EPHEMERIS_TYPE = 0
CLASSIFICATION_TYPE = U
NORAD_CAT_ID   = 68102
ELEMENT_SET_NO = 999
REV_AT_EPOCH   = 217
BSTAR          = -.32910836E-2
MEAN_MOTION_DOT = -.1791886E-1
MEAN_MOTION_DDOT = .98382584E-3

CCSDS_OMM_VERS = 2.0
CREATION_DATE  = 
ORIGINATOR     = 

OBJECT_NAME    = STARLINK-37018
OBJECT_ID      = 2026-044C
CENTER_NAME    = EARTH
REF_FRAME      = TEME
TIME_SYSTEM    = UTC
MEAN_ELEMENT_THEORY = SGP/SGP4

EPOCH          = 2026-03-14T12:00:02.000160
MEAN_MOTION    = 16.01577089
ECCENTRICITY   = .00015877
INCLINATION    = 97.2824
RA_OF_ASC_NODE = 33.7298
ARG_OF_PERICENTER = 96.0912
MEAN_ANOMALY   = 48.9427

EPHEMERIS_TYPE = 0
CLASSIFICATION_TYPE = U
NORAD_CAT_ID   = 68103
ELEMENT_SET_NO = 999
REV_AT_EPOCH   = 212
BSTAR          = -.32937353E-2
MEAN_MOTION_DOT = -.180915E-1
MEAN_MOTION_DDOT = .10036074E-2

CCSDS_OMM_VERS = 2.0
CREATION_DATE  = 
ORIGINATOR     = 

OBJECT_NAME    = STARLINK-37041
OBJECT_ID      = 2026-044D
CENTER_NAME    = EARTH
REF_FRAME      = TEME
TIME_SYSTEM    = UTC
MEAN_ELEMENT_THEORY = SGP/SGP4

EPOCH          = 2026-03-14T12:00:02.000160
MEAN_MOTION    = 16.01851213
ECCENTRICITY   = .00015171
INCLINATION    = 97.2825
RA_OF_ASC_NODE = 33.7315
ARG_OF_PERICENTER = 96.9115
MEAN_ANOMALY   = 51.7066

EPHEMERIS_TYPE = 0
CLASSIFICATION_TYPE = U
NORAD_CAT_ID   = 68104
ELEMENT_SET_NO = 999
REV_AT_EPOCH   = 212
BSTAR          = -.3255929E-2
MEAN_MOTION_DOT = -.1816804E-1
MEAN_MOTION_DDOT = .10149512E-2

CCSDS_OMM_VERS = 2.0
CREATION_DATE  = 
ORIGINATOR     = 

OBJECT_NAME    = STARLINK-37021
OBJECT_ID      = 2026-044E
CENTER_NAME    = EARTH
REF_FRAME      = TEME
TIME_SYSTEM    = UTC
MEAN_ELEMENT_THEORY = SGP/SGP4

EPOCH          = 2026-03-14T12:00:02.000160
MEAN_MOTION    = 16.01961889
ECCENTRICITY   = .00014652
INCLINATION    = 97.2822
RA_OF_ASC_NODE = 33.7318
ARG_OF_PERICENTER = 93.9169
MEAN_ANOMALY   = 56.2079

EPHEMERIS_TYPE = 0
CLASSIFICATION_TYPE = U
NORAD_CAT_ID   = 68105
ELEMENT_SET_NO = 999
REV_AT_EPOCH   = 212
BSTAR          = -.32056453E-2
MEAN_MOTION_DOT = -.1800413E-1
MEAN_MOTION_DDOT = .99906168E-3

CCSDS_OMM_VERS = 2.0
CREATION_DATE  = 
ORIGINATOR     = 

OBJECT_NAME    = STARLINK-37024
OBJECT_ID      = 2026-044F
CENTER_NAME    = EARTH
REF_FRAME      = TEME
TIME_SYSTEM    = UTC
MEAN_ELEMENT_THEORY = SGP/SGP4

EPOCH          = 2026-03-14T12:00:02.000160
MEAN_MOTION    = 16.02095987
ECCENTRICITY   = .00015216
INCLINATION    = 97.2822
RA_OF_ASC_NODE = 33.7326
ARG_OF_PERICENTER = 94.9682
MEAN_ANOMALY   = 56.8669

EPHEMERIS_TYPE = 0
CLASSIFICATION_TYPE = U
NORAD_CAT_ID   = 68106
ELEMENT_SET_NO = 999
REV_AT_EPOCH   = 212
BSTAR          = -.31957437E-2
MEAN_MOTION_DOT = -.1808781E-1
MEAN_MOTION_DDOT = .10094658E-2

CCSDS_OMM_VERS = 2.0
CREATION_DATE  = 
ORIGINATOR     = 

OBJECT_NAME    = STARLINK-37005
OBJECT_ID      = 2026-044G
CENTER_NAME    = EARTH
REF_FRAME      = TEME
TIME_SYSTEM    = UTC
MEAN_ELEMENT_THEORY = SGP/SGP4

EPOCH          = 2026-03-14T12:00:02.000160
MEAN_MOTION    = 16.01715314
ECCENTRICITY   = .00015756
INCLINATION    = 97.2824
RA_OF_ASC_NODE = 33.7302
ARG_OF_PERICENTER = 95.8035
MEAN_ANOMALY   = 51.0056

EPHEMERIS_TYPE = 0
CLASSIFICATION_TYPE = U
NORAD_CAT_ID   = 68107
ELEMENT_SET_NO = 999
REV_AT_EPOCH   = 212
BSTAR          = -.32834233E-2
MEAN_MOTION_DOT = -.181782E-1
MEAN_MOTION_DDOT = .1014374E-2

CCSDS_OMM_VERS = 2.0
CREATION_DATE  = 
ORIGINATOR     = 

OBJECT_NAME    = STARLINK-37017
OBJECT_ID      = 2026-044H
CENTER_NAME    = EARTH
REF_FRAME      = TEME
TIME_SYSTEM    = UTC
MEAN_ELEMENT_THEORY = SGP/SGP4

EPOCH          = 2026-03-14T12:00:02.000160
MEAN_MOTION    = 16.02244633
ECCENTRICITY   = .00014462
INCLINATION    = 97.2822
RA_OF_ASC_NODE = 33.7336
ARG_OF_PERICENTER = 93.4978
MEAN_ANOMALY   = 60.2992

EPHEMERIS_TYPE = 0
CLASSIFICATION_TYPE = U
NORAD_CAT_ID   = 68108
ELEMENT_SET_NO = 999
REV_AT_EPOCH   = 212
BSTAR          = -.31990917E-2
MEAN_MOTION_DOT = -.1826153E-1
MEAN_MOTION_DDOT = .10297037E-2

CCSDS_OMM_VERS = 2.0
CREATION_DATE  = 
ORIGINATOR     = 

OBJECT_NAME    = STARLINK-36833
OBJECT_ID      = 2026-044J
CENTER_NAME    = EARTH
REF_FRAME      = TEME
TIME_SYSTEM    = UTC
MEAN_ELEMENT_THEORY = SGP/SGP4

EPOCH          = 2026-03-14T12:00:02.000160
MEAN_MOTION    = 16.02507441
ECCENTRICITY   = .0001512
INCLINATION    = 97.2816
RA_OF_ASC_NODE = 33.7349
ARG_OF_PERICENTER = 95.4333
MEAN_ANOMALY   = 61.9247

EPHEMERIS_TYPE = 0
CLASSIFICATION_TYPE = U
NORAD_CAT_ID   = 68109
ELEMENT_SET_NO = 999
REV_AT_EPOCH   = 217
BSTAR          = -.31450734E-2
MEAN_MOTION_DOT = -.1823064E-1
MEAN_MOTION_DDOT = .10296828E-2

